[{"OBJECT_NAME":"GARAI-A","OBJECT_ID":"2025-009AC","EPOCH":"2026-03-09T21:36:19.316448","MEAN_MOTION":15.20920537,"ECCENTRICITY":0.00014341,"INCLINATION":97.4043,"RA_OF_ASC_NODE":150.5243,"ARG_OF_PERICENTER":352.7468,"MEAN_ANOMALY":7.3747,"EPHEMERIS_TYPE":0,"CLASSIFICATION_TYPE":"U","NORAD_CAT_ID":62635,"ELEMENT_SET_NO":999,"REV_AT_EPOCH":6369,"BSTAR":0.00042225314,"MEAN_MOTION_DOT":9.278e-5,"MEAN_MOTION_DDOT":0},{"OBJECT_NAME":"SUPERVIEW NEO-1 03","OBJECT_ID":"2025-040A","EPOCH":"2026-03-09T18:28:12.817056","MEAN_MOTION":15.21682826,"ECCENTRICITY":0.00014726,"INCLINATION":97.338,"RA_OF_ASC_NODE":185.5773,"ARG_OF_PERICENTER":140.3569,"MEAN_ANOMALY":219.7775,"EPHEMERIS_TYPE":0,"CLASSIFICATION_TYPE":"U","NORAD_CAT_ID":63125,"ELEMENT_SET_NO":999,"REV_AT_EPOCH":5706,"BSTAR":4.236936e-6,"MEAN_MOTION_DOT":2.9e-7,"MEAN_MOTION_DDOT":0}]
